1 20253U 89077A   26089.56631838 -.00000378  00000-0  00000-0 0  9997
2 20253  12.4434 351.6353 0008010 356.9201 169.0456  1.00274078259773
1 20776U 90079A   26087.83666557  .00000113  00000-0  00000-0 0  9991
2 20776  13.3658 350.3637 0003470   5.3383 165.0871  1.00272795130086
1 22787U 93056A   26089.90350391  .00000113  00000-0  00000+0 0  9998
2 22787  11.9669   3.9528 0007116 200.3041 337.9800  1.00247163117768
1 23467U 95003A   26090.62544796 -.00000030  00000-0  00000+0 0  9992
2 23467   9.6936  13.4832 0003490 351.3784 221.7084  1.00268648114178
1 23967U 96042A   26090.20461351 -.00000255  00000-0  00000+0 0  9999
2 23967  11.0429  17.4999 0003702  98.0942 114.7128  1.00238479108703
1 25639U 99009B   26090.54211476 -.00000084  00000-0  00000+0 0  9991
2 25639  12.0213   9.5170 0003154 289.3131 282.0084  0.99029231 50383
1 25967U 99063A   26090.10720745 -.00000198  00000-0  00000-0 0  9998
2 25967   9.8437  27.6185 0004513 318.7188 217.7667  1.00268322 96566
1 27168U 02001A   26088.00878056  .00000084  00000-0  00000+0 0  9996
2 27168  11.0841  22.3845 0099500   3.8381 182.3517  1.00267845 32152
1 28117U 03057A   26090.83976397 -.00000110  00000-0  00000+0 0  9995
2 28117   8.8911  34.1977 0003063 318.3383 214.4151  1.00272237 81674
1 30794U 07007B   26090.84375066 -.00000279  00000-0  00000+0 0  9991
2 30794   5.1045  74.6644 0003945 306.2316 207.2851  1.00272685 69925
1 32294U 07056B   26090.68718781  .00000132  00000-0  00000+0 0  9996
2 32294   5.0555  74.4106 0003960 292.9241  94.1878  1.00270888 67421
1 35943U 09054B   26090.86821919  .00000013  00000-0  00000+0 0  9996
2 35943   0.0542  81.5924 0003707 302.0493 181.1456  1.00270884 60534
1 36582U 10021B   26090.25696806  .00000075  00000-0  00000+0 0  9998
2 36582   0.0211 148.8940 0002781 236.8002 268.6390  1.00274640 58172
1 38098U 12011A   26090.83915729 -.00000071  00000-0  00000+0 0  9992
2 38098   0.0222 236.0559 0001664 146.5742 180.7757  1.00275252  6412
1 39034U 12075A   26090.62140753  .00000086  00000-0  00000+0 0  9992
2 39034   0.0708  11.5629 0003692 356.2208  97.6510  1.00274038 48382
1 40296U 14069A   26089.91552591  .00000103  00000-0  00000-0 0  9997
2 40296  63.4572 223.0817 6677209 271.0687  19.1464  2.00582442 83666
1 44453U 19046A   26089.95688912 -.00000029  00000-0  00000-0 0  9995
2 44453  63.0610  60.7948 7051421 274.6444  15.0214  2.00617368 48775
1 45254U 20015A   26089.70382042 -.00000075  00000-0  00000-0 0  9992
2 45254  65.5054 327.3402 6883930 279.2338  14.7581  2.00602940 44714
1 52145U 22030A   26090.21127875  .00000236  00000-0  00000+0 0  9994
2 52145  62.6701 149.1483 6764460 272.9222  17.7904  2.00615208 29463
1 26635U 00080A   21013.46269075 0.00000000  00000-0  00000-0 0    09
2 26635   9.2857  29.8038 0014383 186.3086 173.6859  1.00273100    09
1 34810U 09020A   25358.93258989 0.00000000  00000-0  00000-0 0    06
2 34810   2.7881  81.1408 0004972 246.2147 113.7417  1.00270000    08
1 40614U 15022B   25359.93496764 0.00000000  00000-0  00000-0 0    00
2 40614   0.0160 108.2839 0003453 352.8976   7.0980  1.00270000    04
